[{"OBJECT_NAME":"STARLINK-33714","OBJECT_ID":"2025-076N","EPOCH":"2026-03-07T03:32:34.319616","MEAN_MOTION":15.27613188,"ECCENTRICITY":0.00015765,"INCLINATION":43.0014,"RA_OF_ASC_NODE":335.8777,"ARG_OF_PERICENTER":263.5233,"MEAN_ANOMALY":96.5439,"EPHEMERIS_TYPE":0,"CLASSIFICATION_TYPE":"U","NORAD_CAT_ID":63581,"ELEMENT_SET_NO":999,"REV_AT_EPOCH":5144,"BSTAR":0.0010739231,"MEAN_MOTION_DOT":0.00029438,"MEAN_MOTION_DDOT":0},{"OBJECT_NAME":"STARLINK-33814","OBJECT_ID":"2025-076P","EPOCH":"2026-03-07T01:49:10.289856","MEAN_MOTION":15.27593803,"ECCENTRICITY":0.00014887,"INCLINATION":43.0042,"RA_OF_ASC_NODE":336.1973,"ARG_OF_PERICENTER":264.0749,"MEAN_ANOMALY":95.9933,"EPHEMERIS_TYPE":0,"CLASSIFICATION_TYPE":"U","NORAD_CAT_ID":63582,"ELEMENT_SET_NO":999,"REV_AT_EPOCH":5143,"BSTAR":0.0013628999,"MEAN_MOTION_DOT":0.00037448,"MEAN_MOTION_DDOT":0},{"OBJECT_NAME":"STARLINK-33817","OBJECT_ID":"2025-076Q","EPOCH":"2026-03-07T01:39:55.077408","MEAN_MOTION":15.27602034,"ECCENTRICITY":0.00012525,"INCLINATION":43.0026,"RA_OF_ASC_NODE":336.1489,"ARG_OF_PERICENTER":274.1617,"MEAN_ANOMALY":85.9091,"EPHEMERIS_TYPE":0,"CLASSIFICATION_TYPE":"U","NORAD_CAT_ID":63583,"ELEMENT_SET_NO":999,"REV_AT_EPOCH":5142,"BSTAR":0.0010051931,"MEAN_MOTION_DOT":0.0002752,"MEAN_MOTION_DDOT":0},{"OBJECT_NAME":"STARLINK-33820","OBJECT_ID":"2025-076R","EPOCH":"2026-03-07T03:02:58.323552","MEAN_MOTION":15.27608128,"ECCENTRICITY":8.168e-5,"INCLINATION":43.0018,"RA_OF_ASC_NODE":335.7209,"ARG_OF_PERICENTER":276.2977,"MEAN_ANOMALY":83.7782,"EPHEMERIS_TYPE":0,"CLASSIFICATION_TYPE":"U","NORAD_CAT_ID":63584,"ELEMENT_SET_NO":999,"REV_AT_EPOCH":5144,"BSTAR":0.00096001826,"MEAN_MOTION_DOT":0.00026272,"MEAN_MOTION_DDOT":0},{"OBJECT_NAME":"STARLINK-33813","OBJECT_ID":"2025-076S","EPOCH":"2026-03-07T03:04:49.216224","MEAN_MOTION":15.27609284,"ECCENTRICITY":0.00010549,"INCLINATION":43.0017,"RA_OF_ASC_NODE":335.7315,"ARG_OF_PERICENTER":275.2214,"MEAN_ANOMALY":84.8517,"EPHEMERIS_TYPE":0,"CLASSIFICATION_TYPE":"U","NORAD_CAT_ID":63585,"ELEMENT_SET_NO":999,"REV_AT_EPOCH":5144,"BSTAR":0.0010331386,"MEAN_MOTION_DOT":0.00028302,"MEAN_MOTION_DDOT":0},{"OBJECT_NAME":"STARLINK-33834","OBJECT_ID":"2025-076T","EPOCH":"2026-03-07T02:20:37.313376","MEAN_MOTION":15.2760915,"ECCENTRICITY":0.00012306,"INCLINATION":42.9983,"RA_OF_ASC_NODE":336.3633,"ARG_OF_PERICENTER":274.9557,"MEAN_ANOMALY":85.1154,"EPHEMERIS_TYPE":0,"CLASSIFICATION_TYPE":"U","NORAD_CAT_ID":63586,"ELEMENT_SET_NO":999,"REV_AT_EPOCH":5143,"BSTAR":0.0010795076,"MEAN_MOTION_DOT":0.00029589,"MEAN_MOTION_DDOT":0},{"OBJECT_NAME":"STARLINK-33830","OBJECT_ID":"2025-076U","EPOCH":"2026-03-07T03:51:04.564800","MEAN_MOTION":15.27606462,"ECCENTRICITY":0.00013686,"INCLINATION":42.9989,"RA_OF_ASC_NODE":335.9742,"ARG_OF_PERICENTER":252.5621,"MEAN_ANOMALY":107.5081,"EPHEMERIS_TYPE":0,"CLASSIFICATION_TYPE":"U","NORAD_CAT_ID":63587,"ELEMENT_SET_NO":999,"REV_AT_EPOCH":5144,"BSTAR":0.00052458342,"MEAN_MOTION_DOT":0.00014213,"MEAN_MOTION_DDOT":0},{"OBJECT_NAME":"STARLINK-33651","OBJECT_ID":"2025-076V","EPOCH":"2026-03-07T02:18:46.626336","MEAN_MOTION":15.27608116,"ECCENTRICITY":0.0001613,"INCLINATION":43.0007,"RA_OF_ASC_NODE":336.3529,"ARG_OF_PERICENTER":267.2757,"MEAN_ANOMALY":92.791,"EPHEMERIS_TYPE":0,"CLASSIFICATION_TYPE":"U","NORAD_CAT_ID":63588,"ELEMENT_SET_NO":999,"REV_AT_EPOCH":5143,"BSTAR":0.0015257181,"MEAN_MOTION_DOT":0.00041998,"MEAN_MOTION_DDOT":0},{"OBJECT_NAME":"STARLINK-33788","OBJECT_ID":"2025-076W","EPOCH":"2026-03-07T02:42:49.799232","MEAN_MOTION":15.27610489,"ECCENTRICITY":0.00017564,"INCLINATION":42.9981,"RA_OF_ASC_NODE":336.4826,"ARG_OF_PERICENTER":269.9934,"MEAN_ANOMALY":90.0716,"EPHEMERIS_TYPE":0,"CLASSIFICATION_TYPE":"U","NORAD_CAT_ID":63589,"ELEMENT_SET_NO":999,"REV_AT_EPOCH":5143,"BSTAR":0.0011538379,"MEAN_MOTION_DOT":0.00031655,"MEAN_MOTION_DDOT":0},{"OBJECT_NAME":"STARLINK-33805","OBJECT_ID":"2025-076X","EPOCH":"2026-03-07T02:57:37.545408","MEAN_MOTION":15.27576856,"ECCENTRICITY":0.0001492,"INCLINATION":43.0015,"RA_OF_ASC_NODE":336.5471,"ARG_OF_PERICENTER":259.6444,"MEAN_ANOMALY":100.4239,"EPHEMERIS_TYPE":0,"CLASSIFICATION_TYPE":"U","NORAD_CAT_ID":63590,"ELEMENT_SET_NO":999,"REV_AT_EPOCH":5143,"BSTAR":0.0012307574,"MEAN_MOTION_DOT":0.00033758,"MEAN_MOTION_DDOT":0},{"OBJECT_NAME":"STARLINK-33702","OBJECT_ID":"2025-076Y","EPOCH":"2026-03-07T01:51:01.319040","MEAN_MOTION":15.27608155,"ECCENTRICITY":0.00010947,"INCLINATION":43.005,"RA_OF_ASC_NODE":336.2004,"ARG_OF_PERICENTER":308.3833,"MEAN_ANOMALY":51.692,"EPHEMERIS_TYPE":0,"CLASSIFICATION_TYPE":"U","NORAD_CAT_ID":63591,"ELEMENT_SET_NO":999,"REV_AT_EPOCH":5143,"BSTAR":0.00089542812,"MEAN_MOTION_DOT":0.00024481,"MEAN_MOTION_DDOT":0},{"OBJECT_NAME":"STARLINK-33666","OBJECT_ID":"2025-076Z","EPOCH":"2026-03-07T02:35:25.183968","MEAN_MOTION":15.27593611,"ECCENTRICITY":9.939e-5,"INCLINATION":43.0007,"RA_OF_ASC_NODE":336.4385,"ARG_OF_PERICENTER":277.1164,"MEAN_ANOMALY":82.9575,"EPHEMERIS_TYPE":0,"CLASSIFICATION_TYPE":"U","NORAD_CAT_ID":63592,"ELEMENT_SET_NO":999,"REV_AT_EPOCH":5143,"BSTAR":0.0008132257,"MEAN_MOTION_DOT":0.00022193,"MEAN_MOTION_DDOT":0},{"OBJECT_NAME":"STARLINK-33723","OBJECT_ID":"2025-076AA","EPOCH":"2026-03-07T03:34:25.615776","MEAN_MOTION":15.27604392,"ECCENTRICITY":0.00012437,"INCLINATION":43.0025,"RA_OF_ASC_NODE":335.8812,"ARG_OF_PERICENTER":293.4321,"MEAN_ANOMALY":66.64,"EPHEMERIS_TYPE":0,"CLASSIFICATION_TYPE":"U","NORAD_CAT_ID":63593,"ELEMENT_SET_NO":999,"REV_AT_EPOCH":5144,"BSTAR":0.00059932029,"MEAN_MOTION_DOT":0.00016278,"MEAN_MOTION_DDOT":0},{"OBJECT_NAME":"STARLINK-33791","OBJECT_ID":"2025-076AB","EPOCH":"2026-03-07T04:13:16.870944","MEAN_MOTION":15.27636497,"ECCENTRICITY":0.00020504,"INCLINATION":43.0024,"RA_OF_ASC_NODE":336.0861,"ARG_OF_PERICENTER":292.0217,"MEAN_ANOMALY":68.0417,"EPHEMERIS_TYPE":0,"CLASSIFICATION_TYPE":"U","NORAD_CAT_ID":63594,"ELEMENT_SET_NO":999,"REV_AT_EPOCH":5144,"BSTAR":0.0015912052,"MEAN_MOTION_DOT":0.00043862,"MEAN_MOTION_DDOT":0},{"OBJECT_NAME":"STARLINK-33831","OBJECT_ID":"2025-076AC","EPOCH":"2026-03-07T03:39:57.341664","MEAN_MOTION":15.27613471,"ECCENTRICITY":0.00022985,"INCLINATION":43.0014,"RA_OF_ASC_NODE":335.8546,"ARG_OF_PERICENTER":251.0205,"MEAN_ANOMALY":109.0398,"EPHEMERIS_TYPE":0,"CLASSIFICATION_TYPE":"U","NORAD_CAT_ID":63595,"ELEMENT_SET_NO":999,"REV_AT_EPOCH":5144,"BSTAR":0.00093838448,"MEAN_MOTION_DOT":0.00025677,"MEAN_MOTION_DDOT":0},{"OBJECT_NAME":"STARLINK-33879","OBJECT_ID":"2025-083A","EPOCH":"2026-03-07T05:02:40.544736","MEAN_MOTION":15.27617658,"ECCENTRICITY":0.00032962,"INCLINATION":42.9989,"RA_OF_ASC_NODE":19.5592,"ARG_OF_PERICENTER":245.5627,"MEAN_ANOMALY":114.4881,"EPHEMERIS_TYPE":0,"CLASSIFICATION_TYPE":"U","NORAD_CAT_ID":63634,"ELEMENT_SET_NO":999,"REV_AT_EPOCH":4968,"BSTAR":0.001512845,"MEAN_MOTION_DOT":0.00041656,"MEAN_MOTION_DDOT":0},{"OBJECT_NAME":"STARLINK-33854","OBJECT_ID":"2025-083B","EPOCH":"2026-03-07T05:35:47.464800","MEAN_MOTION":15.27605519,"ECCENTRICITY":2.04e-5,"INCLINATION":42.9988,"RA_OF_ASC_NODE":18.8767,"ARG_OF_PERICENTER":272.4944,"MEAN_ANOMALY":87.5884,"EPHEMERIS_TYPE":0,"CLASSIFICATION_TYPE":"U","NORAD_CAT_ID":63635,"ELEMENT_SET_NO":999,"REV_AT_EPOCH":4969,"BSTAR":0.0011757473,"MEAN_MOTION_DOT":0.00032259,"MEAN_MOTION_DDOT":0},{"OBJECT_NAME":"STARLINK-33864","OBJECT_ID":"2025-083C","EPOCH":"2026-03-07T05:08:14.367552","MEAN_MOTION":15.2761488,"ECCENTRICITY":0.00019842,"INCLINATION":43.0024,"RA_OF_ASC_NODE":19.5909,"ARG_OF_PERICENTER":270.0202,"MEAN_ANOMALY":90.0423,"EPHEMERIS_TYPE":0,"CLASSIFICATION_TYPE":"U","NORAD_CAT_ID":63636,"ELEMENT_SET_NO":999,"REV_AT_EPOCH":4971,"BSTAR":0.0014650834,"MEAN_MOTION_DOT":0.00040318,"MEAN_MOTION_DDOT":0},{"OBJECT_NAME":"STARLINK-33832","OBJECT_ID":"2025-083D","EPOCH":"2026-03-07T06:58:50.070720","MEAN_MOTION":15.27609082,"ECCENTRICITY":0.00011797,"INCLINATION":43.0019,"RA_OF_ASC_NODE":18.4473,"ARG_OF_PERICENTER":272.4929,"MEAN_ANOMALY":87.5787,"EPHEMERIS_TYPE":0,"CLASSIFICATION_TYPE":"U","NORAD_CAT_ID":63637,"ELEMENT_SET_NO":999,"REV_AT_EPOCH":4970,"BSTAR":0.00093092773,"MEAN_MOTION_DOT":0.00025466,"MEAN_MOTION_DDOT":0},{"OBJECT_NAME":"STARLINK-33856","OBJECT_ID":"2025-083E","EPOCH":"2026-03-07T05:39:28.976256","MEAN_MOTION":15.27615745,"ECCENTRICITY":0.00014952,"INCLINATION":43.0039,"RA_OF_ASC_NODE":18.8866,"ARG_OF_PERICENTER":272.3176,"MEAN_ANOMALY":87.7505,"EPHEMERIS_TYPE":0,"CLASSIFICATION_TYPE":"U","NORAD_CAT_ID":63638,"ELEMENT_SET_NO":999,"REV_AT_EPOCH":4969,"BSTAR":0.0016896565,"MEAN_MOTION_DOT":0.00046579,"MEAN_MOTION_DDOT":0},{"OBJECT_NAME":"STARLINK-33876","OBJECT_ID":"2025-083F","EPOCH":"2026-03-07T06:01:41.383488","MEAN_MOTION":15.27625394,"ECCENTRICITY":0.00015736,"INCLINATION":43.0053,"RA_OF_ASC_NODE":18.9997,"ARG_OF_PERICENTER":269.8531,"MEAN_ANOMALY":90.2141,"EPHEMERIS_TYPE":0,"CLASSIFICATION_TYPE":"U","NORAD_CAT_ID":63639,"ELEMENT_SET_NO":999,"REV_AT_EPOCH":4969,"BSTAR":0.0013510956,"MEAN_MOTION_DOT":0.00037156,"MEAN_MOTION_DDOT":0},{"OBJECT_NAME":"STARLINK-33859","OBJECT_ID":"2025-083G","EPOCH":"2026-03-07T05:06:23.591520","MEAN_MOTION":15.27618364,"ECCENTRICITY":0.00013899,"INCLINATION":43.0019,"RA_OF_ASC_NODE":19.584,"ARG_OF_PERICENTER":270.7989,"MEAN_ANOMALY":89.2703,"EPHEMERIS_TYPE":0,"CLASSIFICATION_TYPE":"U","NORAD_CAT_ID":63640,"ELEMENT_SET_NO":999,"REV_AT_EPOCH":4968,"BSTAR":0.0015456653,"MEAN_MOTION_DOT":0.00042567,"MEAN_MOTION_DDOT":0},{"OBJECT_NAME":"STARLINK-33826","OBJECT_ID":"2025-083H","EPOCH":"2026-03-07T05:43:11.025984","MEAN_MOTION":15.27601018,"ECCENTRICITY":0.00012762,"INCLINATION":43.0031,"RA_OF_ASC_NODE":18.9108,"ARG_OF_PERICENTER":262.4137,"MEAN_ANOMALY":97.657,"EPHEMERIS_TYPE":0,"CLASSIFICATION_TYPE":"U","NORAD_CAT_ID":63641,"ELEMENT_SET_NO":999,"REV_AT_EPOCH":4969,"BSTAR":0.0012224127,"MEAN_MOTION_DOT":0.00033551,"MEAN_MOTION_DDOT":0}]
